{"type": "FeatureCollection", "features": [ {"type": "Feature", "properties": {"norad_id": 30096, "name": "FENGYUN 1C DEB", "group": "fengyun-1c-debris", "lat": 51.797249828494245, "lon": 49.03552601130576, "alt_km": 836.1763912841197, "timestamp": "2025-12-07T20:38:14.337725+00:00", "meta": {"OBJECT_NAME": "FENGYUN 1C DEB", "OBJECT_ID": "1999-025QZ", "EPOCH": "2025-12-07T03:36:57.223584", "MEAN_MOTION": 14.31675384, "ECCENTRICITY": 0.00789607, "INCLINATION": 99.1482, "RA_OF_ASC_NODE": 60.1036, "ARG_OF_PERICENTER": 248.7271, "MEAN_ANOMALY": 110.5466, "EPHEMERIS_TYPE": 0, "CLASSIFICATION_TYPE": "U", "NORAD_CAT_ID": 30096, "ELEMENT_SET_NO": 999, "REV_AT_EPOCH": 98466, "BSTAR": 0.00056483521, "MEAN_MOTION_DOT": 1.509e-05, "MEAN_MOTION_DDOT": 0}, "tle": {"line1": "1 30096U 99025QZ  25341.15066231  .00001509  00000+0  56484-3 0  9996", "line2": "2 30096  99.1482  60.1036 0078960 248.7271 110.5466 14.31675384984668"}}, "geometry": {"type": "Point", "coordinates": [49.03552601130576, 51.797249828494245]}}, {"type": "Feature", "properties": {"norad_id": 30099, "name": "FENGYUN 1C DEB", "group": "fengyun-1c-debris", "lat": 35.476872070784296, "lon": 48.14083368916564, "alt_km": 834.7328076491776, "timestamp": "2025-12-07T20:38:14.337734+00:00", "meta": {"OBJECT_NAME": "FENGYUN 1C DEB", "OBJECT_ID": "1999-025RC", "EPOCH": "2025-12-07T03:46:03.582624", "MEAN_MOTION": 14.2592416, "ECCENTRICITY": 0.00609451, "INCLINATION": 98.5411, "RA_OF_ASC_NODE": 53.6041, "ARG_OF_PERICENTER": 261.2765, "MEAN_ANOMALY": 128.0955, "EPHEMERIS_TYPE": 0, "CLASSIFICATION_TYPE": "U", "NORAD_CAT_ID": 30099, "ELEMENT_SET_NO": 999, "REV_AT_EPOCH": 98110, "BSTAR": 0.00051169497, "MEAN_MOTION_DOT": 1.2e-05, "MEAN_MOTION_DDOT": 0}, "tle": {"line1": "1 30099U 99025RC  25341.15698591  .00001200  00000+0  51169-3 0  9992", "line2": "2 30099  98.5411  53.6041 0060945 261.2765 128.0955 14.25924160981106"}}, "geometry": {"type": "Point", "coordinates": [48.14083368916564, 35.476872070784296]}}, {"type": "Feature", "properties": {"norad_id": 30102, "name": "FENGYUN 1C DEB", "group": "fengyun-1c-debris", "lat": -74.11299095482491, "lon": 21.066335319713797, "alt_km": 825.6281997973838, "timestamp": "2025-12-07T20:38:14.337744+00:00", "meta": {"OBJECT_NAME": "FENGYUN 1C DEB", "OBJECT_ID": "1999-025RF", "EPOCH": "2025-12-07T01:02:45.915072", "MEAN_MOTION": 14.221159, "ECCENTRICITY": 0.0142065, "INCLINATION": 98.3792, "RA_OF_ASC_NODE": 349.1013, "ARG_OF_PERICENTER": 16.8418, "MEAN_ANOMALY": 51.5895, "EPHEMERIS_TYPE": 0, "CLASSIFICATION_TYPE": "U", "NORAD_CAT_ID": 30102, "ELEMENT_SET_NO": 999, "REV_AT_EPOCH": 97877, "BSTAR": 0.00059288027, "MEAN_MOTION_DOT": 1.414e-05, "MEAN_MOTION_DDOT": 0}, "tle": {"line1": "1 30102U 99025RF  25341.04358698  .00001414  00000+0  59288-3 0  9993", "line2": "2 30102  98.3792 349.1013 0142065  16.8418  51.5895 14.22115900978779"}}, "geometry": {"type": "Point", "coordinates": [21.066335319713797, -74.11299095482491]}}, {"type": "Feature", "properties": {"norad_id": 30103, "name": "FENGYUN 1C DEB", "group": "fengyun-1c-debris", "lat": -56.77031539231297, "lon": 128.68929546936397, "alt_km": 827.0757851214939, "timestamp": "2025-12-07T20:38:14.337755+00:00", "meta": {"OBJECT_NAME": "FENGYUN 1C DEB", "OBJECT_ID": "1999-025RG", "EPOCH": "2025-12-06T21:52:27.926976", "MEAN_MOTION": 14.24839567, "ECCENTRICITY": 0.0063944, "INCLINATION": 99.2443, "RA_OF_ASC_NODE": 322.0858, "ARG_OF_PERICENTER": 136.3399, "MEAN_ANOMALY": 278.5056, "EPHEMERIS_TYPE": 0, "CLASSIFICATION_TYPE": "U", "NORAD_CAT_ID": 30103, "ELEMENT_SET_NO": 999, "REV_AT_EPOCH": 97836, "BSTAR": 0.00071396259, "MEAN_MOTION_DOT": 1.654e-05, "MEAN_MOTION_DDOT": 0}, "tle": {"line1": "1 30103U 99025RG  25340.91143434  .00001654  00000+0  71396-3 0  9999", "line2": "2 30103  99.2443 322.0858 0063944 136.3399 278.5056 14.24839567978363"}}, "geometry": {"type": "Point", "coordinates": [128.68929546936397, -56.77031539231297]}}, {"type": "Feature", "properties": {"norad_id": 30104, "name": "FENGYUN 1C DEB", "group": "fengyun-1c-debris", "lat": 67.9579720462489, "lon": 157.85521926993925, "alt_km": 767.410473937277, "timestamp": "2025-12-07T20:38:14.337764+00:00", "meta": {"OBJECT_NAME": "FENGYUN 1C DEB", "OBJECT_ID": "1999-025RH", "EPOCH": "2025-12-07T07:40:20.219808", "MEAN_MOTION": 14.25640399, "ECCENTRICITY": 0.007386, "INCLINATION": 98.3595, "RA_OF_ASC_NODE": 178.6349, "ARG_OF_PERICENTER": 124.0208, "MEAN_ANOMALY": 55.2847, "EPHEMERIS_TYPE": 0, "CLASSIFICATION_TYPE": "U", "NORAD_CAT_ID": 30104, "ELEMENT_SET_NO": 999, "REV_AT_EPOCH": 97815, "BSTAR": 0.0011706627, "MEAN_MOTION_DOT": 2.815e-05, "MEAN_MOTION_DDOT": 0}, "tle": {"line1": "1 30104U 99025RH  25341.31967847  .00002815  00000+0  11707-2 0  9996", "line2": "2 30104  98.3595 178.6349 0073860 124.0208  55.2847 14.25640399978152"}}, "geometry": {"type": "Point", "coordinates": [157.85521926993925, 67.9579720462489]}}, {"type": "Feature", "properties": {"norad_id": 30105, "name": "FENGYUN 1C DEB", "group": "fengyun-1c-debris", "lat": -72.1781869180237, "lon": 119.97508917256243, "alt_km": 967.5437568762909, "timestamp": "2025-12-07T20:38:14.337774+00:00", "meta": {"OBJECT_NAME": "FENGYUN 1C DEB", "OBJECT_ID": "1999-025RJ", "EPOCH": "2025-12-06T21:29:41.790912", "MEAN_MOTION": 14.21383354, "ECCENTRICITY": 0.01998148, "INCLINATION": 98.5931, "RA_OF_ASC_NODE": 327.0927, "ARG_OF_PERICENTER": 90.817, "MEAN_ANOMALY": 271.5907, "EPHEMERIS_TYPE": 0, "CLASSIFICATION_TYPE": "U", "NORAD_CAT_ID": 30105, "ELEMENT_SET_NO": 999, "REV_AT_EPOCH": 97679, "BSTAR": 0.00049152203, "MEAN_MOTION_DOT": 1.271e-05, "MEAN_MOTION_DDOT": 0}, "tle": {"line1": "1 30105U 99025RJ  25340.89562258  .00001271  00000+0  49152-3 0  9997", "line2": "2 30105  98.5931 327.0927 0199814  90.8170 271.5907 14.21383354976796"}}, "geometry": {"type": "Point", "coordinates": [119.97508917256243, -72.1781869180237]}}, {"type": "Feature", "properties": {"norad_id": 30106, "name": "FENGYUN 1C DEB", "group": "fengyun-1c-debris", "lat": -23.10464922168195, "lon": 64.77846801676584, "alt_km": 587.7216907796901, "timestamp": "2025-12-07T20:38:14.337784+00:00", "meta": {"OBJECT_NAME": "FENGYUN 1C DEB", "OBJECT_ID": "1999-025RK", "EPOCH": "2025-12-07T05:50:46.737600", "MEAN_MOTION": 14.84510036, "ECCENTRICITY": 0.00476493, "INCLINATION": 98.9238, "RA_OF_ASC_NODE": 247.9331, "ARG_OF_PERICENTER": 216.9887, "MEAN_ANOMALY": 294.6743, "EPHEMERIS_TYPE": 0, "CLASSIFICATION_TYPE": "U", "NORAD_CAT_ID": 30106, "ELEMENT_SET_NO": 999, "REV_AT_EPOCH": 98463, "BSTAR": 0.007228, "MEAN_MOTION_DOT": 0.00062627, "MEAN_MOTION_DDOT": 0}, "tle": {"line1": "1 30106U 99025RK  25341.24359650  .00062627  00000+0  72280-2 0  9997", "line2": "2 30106  98.9238 247.9331 0047649 216.9887 294.6743 14.84510036984638"}}, "geometry": {"type": "Point", "coordinates": [64.77846801676584, -23.10464922168195]}}, {"type": "Feature", "properties": {"norad_id": 30107, "name": "FENGYUN 1C DEB", "group": "fengyun-1c-debris", "lat": -73.14748118240679, "lon": 69.7679917862373, "alt_km": 760.7414904183888, "timestamp": "2025-12-07T20:38:14.337794+00:00", "meta": {"OBJECT_NAME": "FENGYUN 1C DEB", "OBJECT_ID": "1999-025RL", "EPOCH": "2025-12-07T02:18:43.112448", "MEAN_MOTION": 14.14417391, "ECCENTRICITY": 0.01262479, "INCLINATION": 98.8478, "RA_OF_ASC_NODE": 38.0674, "ARG_OF_PERICENTER": 291.8188, "MEAN_ANOMALY": 66.9595, "EPHEMERIS_TYPE": 0, "CLASSIFICATION_TYPE": "U", "NORAD_CAT_ID": 30107, "ELEMENT_SET_NO": 999, "REV_AT_EPOCH": 97481, "BSTAR": 0.00017654219, "MEAN_MOTION_DOT": 3.19e-06, "MEAN_MOTION_DDOT": 0}, "tle": {"line1": "1 30107U 99025RL  25341.09633232  .00000319  00000+0  17654-3 0  9997", "line2": "2 30107  98.8478  38.0674 0126247 291.8188  66.9595 14.14417391974818"}}, "geometry": {"type": "Point", "coordinates": [69.7679917862373, -73.14748118240679]}}, {"type": "Feature", "properties": {"norad_id": 30108, "name": "FENGYUN 1C DEB", "group": "fengyun-1c-debris", "lat": 37.34278451495058, "lon": 154.5139439634658, "alt_km": 868.7462047361314, "timestamp": "2025-12-07T20:38:14.337803+00:00", "meta": {"OBJECT_NAME": "FENGYUN 1C DEB", "OBJECT_ID": "1999-025RM", "EPOCH": "2025-12-06T22:14:45.913056", "MEAN_MOTION": 14.17155627, "ECCENTRICITY": 0.01978832, "INCLINATION": 98.6598, "RA_OF_ASC_NODE": 326.9273, "ARG_OF_PERICENTER": 38.8314, "MEAN_ANOMALY": 23.9412, "EPHEMERIS_TYPE": 0, "CLASSIFICATION_TYPE": "U", "NORAD_CAT_ID": 30108, "ELEMENT_SET_NO": 999, "REV_AT_EPOCH": 97516, "BSTAR": 0.0005864546, "MEAN_MOTION_DOT": 1.389e-05, "MEAN_MOTION_DDOT": 0}, "tle": {"line1": "1 30108U 99025RM  25340.92692029  .00001389  00000+0  58645-3 0  9991", "line2": "2 30108  98.6598 326.9273 0197883  38.8314  23.9412 14.17155627975162"}}, "geometry": {"type": "Point", "coordinates": [154.5139439634658, 37.34278451495058]}}, {"type": "Feature", "properties": {"norad_id": 30109, "name": "FENGYUN 1C DEB", "group": "fengyun-1c-debris", "lat": -62.91645948954679, "lon": 138.55525428789844, "alt_km": 720.3974062067055, "timestamp": "2025-12-07T20:38:14.337813+00:00", "meta": {"OBJECT_NAME": "FENGYUN 1C DEB", "OBJECT_ID": "1999-025RN", "EPOCH": "2025-12-06T23:25:07.157856", "MEAN_MOTION": 14.17533839, "ECCENTRICITY": 0.01671588, "INCLINATION": 98.5073, "RA_OF_ASC_NODE": 334.728, "ARG_OF_PERICENTER": 249.1481, "MEAN_ANOMALY": 165.892, "EPHEMERIS_TYPE": 0, "CLASSIFICATION_TYPE": "U", "NORAD_CAT_ID": 30109, "ELEMENT_SET_NO": 999, "REV_AT_EPOCH": 97470, "BSTAR": 0.0006661002, "MEAN_MOTION_DOT": 1.508e-05, "MEAN_MOTION_DDOT": 0}, "tle": {"line1": "1 30109U 99025RN  25340.97577729  .00001508  00000+0  66610-3 0  9990", "line2": "2 30109  98.5073 334.7280 0167158 249.1481 165.8920 14.17533839974703"}}, "geometry": {"type": "Point", "coordinates": [138.55525428789844, -62.91645948954679]}}]}